NORAD_CAT_ID,OBJECT_NAME,OBJECT_TYPE,EPOCH,MEAN_MOTION,ECCENTRICITY,INCLINATION,RA_OF_ASC_NODE,ARG_OF_PERICENTER,MEAN_ANOMALY,BSTAR,MEAN_MOTION_DOT,MEAN_MOTION_DDOT,TLE_LINE0,TLE_LINE1,TLE_LINE2,SEMIMAJOR_AXIS,PERIOD,APOGEE,PERIGEE,DECAYED
55935.0,STARLINK-5920,PAYLOAD,2024-03-18 13:59:38,14.98329293,0.000306,69.9974,302.6935,272.8834,87.1975,-5.6906e-06,-1.61e-06,0.0,0 STARLINK-5920,1 55935U 23037X   24078.58308254 -.00000161  00000-0 -56906-5 0  9999,2 55935  69.9974 302.6935 0003060 272.8834  87.1975 14.98329293 55966,6950.195,96.107,574.187,569.933,0.0
55935.0,STARLINK-5920,PAYLOAD,2024-03-18 20:24:10,14.98329424,0.0002971,69.9981,302.0191,272.7848,87.2971,1.6943e-05,1.09e-06,0.0,0 STARLINK-5920,1 55935U 23037X   24078.85012188  .00000109  00000-0  16943-4 0  9993,2 55935  69.9981 302.0191 0002971 272.7848  87.2971 14.98329424 56342,6950.195,96.107,574.125,569.995,0.0
55935.0,STARLINK-5920,PAYLOAD,2024-03-18 22:00:18,14.98330207,0.0003083,69.9973,301.8519,272.6936,87.387,-7.6644e-07,-1.02e-06,0.0,0 STARLINK-5920,1 55935U 23037X   24078.91688145 -.00000102  00000-0 -76644-6 0  9993,2 55935  69.9973 301.8519 0003083 272.6936  87.3870 14.98330207 56010,6950.192,96.107,574.2,569.915,0.0
55935.0,STARLINK-5920,PAYLOAD,2024-03-19 07:37:06,14.98332381,0.0002913,69.9982,300.8416,277.4199,82.6629,1.1938e-06,-7.9e-07,0.0,0 STARLINK-5920,1 55935U 23037X   24079.31744004 -.00000079  00000-0  11938-5 0  9991,2 55935  69.9982 300.8416 0002913 277.4199  82.6629 14.98332381 56071,6950.186,96.107,574.075,570.026,0.0
55935.0,STARLINK-5920,PAYLOAD,2024-03-19 22:02:18,14.98338119,0.0003037,69.9976,299.3258,269.7434,90.3377,2.1922e-05,1.69e-06,0.0,0 STARLINK-5920,1 55935U 23037X   24079.91827313  .00000169  00000-0  21922-4 0  9994,2 55935  69.9976 299.3258 0003037 269.7434  90.3377 14.98338119 56503,6950.168,96.106,574.144,569.922,0.0
55935.0,STARLINK-5920,PAYLOAD,2024-03-20 07:39:08,14.98324504,0.0003018,69.9976,298.3157,275.7611,84.3204,-0.00017649,-2.198e-05,0.0,0 STARLINK-5920,1 55935U 23037X   24080.31884571 -.00002198  00000-0 -17649-3 0  9995,2 55935  69.9976 298.3157 0003018 275.7611  84.3204 14.98324504 56564,6950.21,96.107,574.172,569.977,0.0
55935.0,STARLINK-5920,PAYLOAD,2024-03-20 14:03:40,14.98319832,0.0003081,69.9971,297.6429,270.6356,89.445,-7.2555e-05,-9.58e-06,0.0,0 STARLINK-5920,1 55935U 23037X   24080.58588635 -.00000958  00000-0 -72555-4 0  9996,2 55935  69.9971 297.6429 0003081 270.6356  89.4450 14.98319832 56267,6950.224,96.108,574.231,569.948,0.0
55935.0,STARLINK-5920,PAYLOAD,2024-03-20 22:04:20,14.98324066,0.0003149,69.9975,296.8005,270.6851,89.3947,-8.0879e-05,-1.058e-05,0.0,0 STARLINK-5920,1 55935U 23037X   24080.91968517 -.00001058  00000-0 -80879-4 0  9994,2 55935  69.9975 296.8005 0003149 270.6851  89.3947 14.98324066 56318,6950.211,96.107,574.265,569.888,0.0
55935.0,STARLINK-5920,PAYLOAD,2024-03-21 04:28:52,14.98329529,0.0003102,69.9976,296.1272,270.3531,89.7272,-4.991e-05,-6.89e-06,0.0,0 STARLINK-5920,1 55935U 23037X   24081.18672145 -.00000689  00000-0 -49910-4 0  9993,2 55935  69.9976 296.1272 0003102 270.3531  89.7272 14.98329529 56694,6950.194,96.107,574.215,569.903,0.0
55935.0,STARLINK-5920,PAYLOAD,2024-03-21 14:05:41,14.98328889,0.0003056,69.9976,295.1172,271.4714,88.6095,1.162e-05,4.6e-07,0.0,0 STARLINK-5920,1 55935U 23037X   24081.58728070  .00000046  00000-0  11620-4 0  9998,2 55935  69.9976 295.1172 0003056 271.4714  88.6095 14.98328889 56414,6950.196,96.107,574.185,569.937,0.0
55935.0,STARLINK-5920,PAYLOAD,2024-03-21 22:06:20,14.98337645,0.0003106,69.9975,294.2755,269.9466,90.1337,3.5617e-05,3.32e-06,0.0,0 STARLINK-5920,1 55935U 23037X   24081.92107376  .00000332  00000-0  35617-4 0  9996,2 55935  69.9975 294.2755 0003106 269.9466  90.1337 14.98337645 56464,6950.169,96.107,574.193,569.876,0.0
55935.0,STARLINK-5920,PAYLOAD,2024-03-22 04:30:52,14.98340917,0.0003102,69.9975,293.602,270.0712,90.0092,6.4124e-05,6.72e-06,0.0,0 STARLINK-5920,1 55935U 23037X   24082.18810963  .00000672  00000-0  64124-4 0  9990,2 55935  69.9975 293.6020 0003102 270.0712  90.0092 14.98340917 56840,6950.159,96.106,574.18,569.868,0.0
55935.0,STARLINK-5920,PAYLOAD,2024-03-22 07:43:09,14.98331261,0.0003158,69.9974,293.2656,269.792,90.2877,-8.095e-05,-1.059e-05,0.0,0 STARLINK-5920,1 55935U 23037X   24082.32163864 -.00001059  00000-0 -80950-4 0  9994,2 55935  69.9974 293.2656 0003158 269.7920  90.2877 14.98331261 56864,6950.189,96.107,574.249,569.859,0.0
55935.0,STARLINK-5920,PAYLOAD,2024-03-22 14:07:41,14.98322169,0.0003307,69.9974,292.5918,266.501,93.5771,9.5681e-05,1.049e-05,0.0,0 STARLINK-5920,1 55935U 23037X   24082.58867966  .00001049  00000-0  95681-4 0  9990,2 55935  69.9974 292.5918 0003307 266.5010  93.5771 14.98322169 56561,6950.217,96.108,574.381,569.784,0.0
55935.0,STARLINK-5920,PAYLOAD,2024-03-22 22:08:21,14.9833007,0.0003161,69.9974,291.7502,270.0335,90.0462,0.00010066,1.108e-05,0.0,0 STARLINK-5920,1 55935U 23037X   24082.92247559  .00001108  00000-0  10066-3 0  9997,2 55935  69.9974 291.7502 0003161 270.0335  90.0462 14.98330070 56614,6950.193,96.107,574.255,569.861,0.0
55935.0,STARLINK-5920,PAYLOAD,2024-03-23 04:32:55,14.98317261,0.0003129,69.9974,291.0768,268.7382,91.3419,-6.2293e-05,-8.36e-06,0.0,0 STARLINK-5920,1 55935U 23037X   24083.18952718 -.00000836  00000-0 -62293-4 0  9995,2 55935  69.9974 291.0768 0003129 268.7382  91.3419 14.98317261 56995,6950.232,96.108,574.272,569.923,0.0
55935.0,STARLINK-5920,PAYLOAD,2024-03-23 20:34:15,14.98329452,0.0003081,69.9973,289.3936,269.7073,90.3733,-5.6016e-05,-7.61e-06,0.0,0 STARLINK-5920,1 55935U 23037X   24083.85712181 -.00000761  00000-0 -56016-4 0  9990,2 55935  69.9973 289.3936 0003081 269.7073  90.3733 14.98329452 57091,6950.195,96.107,574.201,569.918,0.0
55935.0,STARLINK-5920,PAYLOAD,2024-03-23 22:10:22,14.9833738,0.000306,69.9974,289.2251,269.8258,90.255,3.0173e-05,2.67e-06,0.0,0 STARLINK-5920,1 55935U 23037X   24083.92387396  .00000267  00000-0  30173-4 0  9999,2 55935  69.9974 289.2251 0003060 269.8258  90.2550 14.98337380 56762,6950.17,96.107,574.162,569.908,0.0
55935.0,STARLINK-5920,PAYLOAD,2024-03-23 23:46:30,14.98338666,0.0003052,69.9974,289.0567,269.7426,90.3384,4.4969e-05,4.44e-06,0.0,0 STARLINK-5920,1 55935U 23037X   24083.99063254  .00000444  00000-0  44969-4 0  9995,2 55935  69.9974 289.0567 0003052 269.7426  90.3384 14.98338666 57111,6950.166,96.106,574.152,569.91,0.0
55935.0,STARLINK-5920,PAYLOAD,2024-03-24 14:11:43,14.9833711,0.0002963,69.9977,287.5413,278.5594,81.5229,-3.2822e-05,-4.85e-06,0.0,0 STARLINK-5920,1 55935U 23037X   24084.59147464 -.00000485  00000-0 -32822-4 0  9990,2 55935  69.9977 287.5413 0002963 278.5594  81.5229 14.98337110 56865,6950.171,96.107,574.095,569.977,0.0
55935.0,STARLINK-5920,PAYLOAD,2024-03-24 22:12:23,14.98339488,0.000302,69.9976,286.6999,271.5924,88.4889,0.00010754,1.191e-05,0.0,0 STARLINK-5920,1 55935U 23037X   24084.92526998  .00001191  00000-0  10754-3 0  9992,2 55935  69.9976 286.6999 0003020 271.5924  88.4889 14.98339488 56912,6950.164,96.106,574.127,569.93,0.0
55935.0,STARLINK-5920,PAYLOAD,2024-03-24 23:48:31,14.98341717,0.0003059,69.9975,286.5316,272.4389,87.642,0.00012521,1.402e-05,0.0,0 STARLINK-5920,1 55935U 23037X   24084.99202800  .00001402  00000-0  12521-3 0  9991,2 55935  69.9975 286.5316 0003059 272.4389  87.6420 14.98341717 57269,6950.157,96.106,574.148,569.896,0.0
55935.0,STARLINK-5920,PAYLOAD,2024-03-25 06:13:03,14.98335462,0.000298,69.9979,285.8586,272.8576,87.2242,-1.09e-06,-1.06e-06,0.0,0 STARLINK-5920,1 55935U 23037X   24085.25907275 -.00000106  00000-0 -10900-5 0  9992,2 55935  69.9979 285.8586 0002980 272.8576  87.2242 14.98335462 57301,6950.176,96.107,574.112,569.97,0.0
55935.0,STARLINK-5920,PAYLOAD,2024-03-25 22:14:24,14.98332304,0.0002644,69.9986,284.1759,265.5526,94.5331,9.5724e-05,1.049e-05,0.0,0 STARLINK-5920,1 55935U 23037X   24085.92667293  .00001049  00000-0  95724-4 0  9990,2 55935  69.9986 284.1759 0002644 265.5526  94.5331 14.98332304 57069,6950.186,96.107,573.888,570.213,0.0
55935.0,STARLINK-5920,PAYLOAD,2024-03-26 06:15:05,14.98332305,0.0002964,69.9972,283.3327,272.6965,87.3855,-7.3122e-05,-9.65e-06,0.0,0 STARLINK-5920,1 55935U 23037X   24086.26047588 -.00000965  00000-0 -73122-4 0  9993,2 55935  69.9972 283.3327 0002964 272.6965  87.3855 14.98332305 57452,6950.186,96.107,574.111,569.991,0.0
55935.0,STARLINK-5920,PAYLOAD,2024-03-26 14:15:45,14.98322914,0.0002547,70.0003,282.4939,260.8643,99.2228,-2.894e-05,-4.38e-06,0.0,0 STARLINK-5920,1 55935U 23037X   24086.59428167 -.00000438  00000-0 -28940-4 0  9998,2 55935  70.0003 282.4939 0002547 260.8643  99.2228 14.98322914 57167,6950.215,96.107,573.85,570.31,0.0
55935.0,STARLINK-5920,PAYLOAD,2024-03-26 20:40:18,14.98318395,0.0002838,69.9987,281.8194,265.419,94.6645,-9.8843e-05,-1.272e-05,0.0,0 STARLINK-5920,1 55935U 23037X   24086.86132714 -.00001272  00000-0 -98843-4 0  9994,2 55935  69.9987 281.8194 0002838 265.4190  94.6645 14.98318395 57544,6950.229,96.108,574.066,570.121,0.0
55935.0,STARLINK-5920,PAYLOAD,2024-03-26 22:16:26,14.98318321,0.0002844,69.9987,281.651,265.7751,94.3083,-0.00010053,-1.292e-05,0.0,0 STARLINK-5920,1 55935U 23037X   24086.92808764 -.00001292  00000-0 -10053-3 0  9994,2 55935  69.9987 281.6510 0002844 265.7751  94.3083 14.98318321 57213,6950.229,96.108,574.071,570.117,0.0
55935.0,STARLINK-5920,PAYLOAD,2024-03-27 12:41:37,14.98336341,0.0003697,69.9988,280.1343,267.5416,92.532,0.00011274,1.253e-05,0.0,0 STARLINK-5920,1 55935U 23037X   24087.52890648  .00001253  00000-0  11274-3 0  9994,2 55935  69.9988 280.1343 0003697 267.5416  92.5320 14.98336341 57640,6950.173,96.107,574.608,569.469,0.0
55935.0,STARLINK-5920,PAYLOAD,2024-03-27 14:17:44,14.98353707,0.0002913,69.999,279.9668,270.2483,89.8342,0.00029373,3.416e-05,0.0,0 STARLINK-5920,1 55935U 23037X   24087.59565218  .00003416  00000-0  29373-3 0  9995,2 55935  69.9990 279.9668 0002913 270.2483  89.8342 14.98353707 57316,6950.12,96.105,574.009,569.96,0.0
